NORAD_CAT_ID,OBJECT_NAME,OBJECT_TYPE,EPOCH,MEAN_MOTION,ECCENTRICITY,INCLINATION,RA_OF_ASC_NODE,ARG_OF_PERICENTER,MEAN_ANOMALY,BSTAR,MEAN_MOTION_DOT,MEAN_MOTION_DDOT,TLE_LINE0,TLE_LINE1,TLE_LINE2,SEMIMAJOR_AXIS,PERIOD,APOGEE,PERIGEE,DECAYED
49455.0,STARLINK-3145,PAYLOAD,2024-05-04 09:41:14,15.08838604,0.0001443,53.218,6.1111,74.3511,285.764,-6.6775e-05,-1.35e-05,0.0,0 STARLINK-3145,1 49455U 21104AZ  24125.40364364 -.00001350  00000-0 -66775-4 0  9995,2 49455  53.2180   6.1111 0001443  74.3511 285.7640 15.08838604138053,6917.885,95.438,540.748,538.751,0.0
49455.0,STARLINK-3145,PAYLOAD,2024-05-05 01:35:05,15.0884512,0.0001257,53.218,3.1348,88.2352,271.8784,6.1296e-05,6.88e-06,0.0,0 STARLINK-3145,1 49455U 21104AZ  24126.06603659  .00000688  00000-0  61296-4 0  9995,2 49455  53.2180   3.1348 0001257  88.2352 271.8784 15.08845120138159,6917.865,95.437,540.599,538.86,0.0
49455.0,STARLINK-3145,PAYLOAD,2024-05-05 20:39:43,15.08833307,0.0001427,53.2186,359.5663,84.5981,275.5174,0.00022703,3.326e-05,0.0,0 STARLINK-3145,1 49455U 21104AZ  24126.86092108  .00003326  00000-0  22703-3 0  9995,2 49455  53.2186 359.5663 0001427  84.5981 275.5174 15.08833307138270,6917.901,95.438,540.753,538.779,0.0
49455.0,STARLINK-3145,PAYLOAD,2024-05-05 22:15:06,15.08835832,0.0001435,53.2188,359.2684,86.9105,273.2052,0.00024842,3.667e-05,0.0,0 STARLINK-3145,1 49455U 21104AZ  24126.92716000  .00003667  00000-0  24842-3 0  9990,2 49455  53.2188 359.2684 0001435  86.9105 273.2052 15.08835832137213,6917.893,95.438,540.751,538.765,0.0
49455.0,STARLINK-3145,PAYLOAD,2024-05-06 22:05:54,15.08832145,0.0001295,53.2188,354.8069,88.982,271.132,0.00023475,3.449e-05,0.0,0 STARLINK-3145,1 49455U 21104AZ  24127.92076516  .00003449  00000-0  23475-3 0  9991,2 49455  53.2188 354.8069 0001295  88.9820 271.1320 15.08832145137366,6917.904,95.438,540.665,538.874,0.0
49455.0,STARLINK-3145,PAYLOAD,2024-05-07 13:59:45,15.08841519,0.0001281,53.2202,351.8421,93.0353,267.0785,7.5017e-05,9.06e-06,0.0,0 STARLINK-3145,1 49455U 21104AZ  24128.58315993  .00000906  00000-0  75017-4 0  9994,2 49455  53.2202 351.8421 0001281  93.0353 267.0785 15.08841519138539,6917.876,95.437,540.627,538.855,0.0
49455.0,STARLINK-3145,PAYLOAD,2024-05-07 20:21:18,15.08829242,0.0001367,53.2187,350.6459,88.3357,271.7792,-3.8101e-05,-8.94e-06,0.0,0 STARLINK-3145,1 49455U 21104AZ  24128.84813259 -.00000894  00000-0 -38101-4 0  9992,2 49455  53.2187 350.6459 0001367  88.3357 271.7792 15.08829242138578,6917.913,95.438,540.724,538.833,0.0
49455.0,STARLINK-3145,PAYLOAD,2024-05-08 07:28:59,15.0884426,0.0001347,53.2191,348.5663,91.6882,268.4264,9.7911e-05,1.271e-05,0.0,0 STARLINK-3145,1 49455U 21104AZ  24129.31180130  .00001271  00000-0  97911-4 0  9992,2 49455  53.2191 348.5663 0001347  91.6882 268.4264 15.08844260138646,6917.867,95.437,540.664,538.801,0.0
49455.0,STARLINK-3145,PAYLOAD,2024-05-08 20:12:05,15.08834785,0.0001691,53.2187,346.1889,94.7561,265.3624,5.4042e-05,5.72e-06,0.0,0 STARLINK-3145,1 49455U 21104AZ  24129.84173027  .00000572  00000-0  54042-4 0  9998,2 49455  53.2187 346.1889 0001691  94.7561 265.3624 15.08834785138721,6917.896,95.438,540.931,538.592,0.0
49455.0,STARLINK-3145,PAYLOAD,2024-05-08 21:47:28,15.08838127,0.0001408,53.2186,345.8892,88.8952,271.2201,4.6241e-05,4.48e-06,0.0,0 STARLINK-3145,1 49455U 21104AZ  24129.90796816  .00000448  00000-0  46241-4 0  9996,2 49455  53.2186 345.8892 0001408  88.8952 271.2201 15.08838127137667,6917.886,95.438,540.725,538.777,0.0
49455.0,STARLINK-3145,PAYLOAD,2024-05-09 07:19:46,15.08853204,0.0001414,53.2183,344.1047,80.3582,279.757,0.00014704,2.054e-05,0.0,0 STARLINK-3145,1 49455U 21104AZ  24130.30539693  .00002054  00000-0  14704-3 0  9993,2 49455  53.2183 344.1047 0001414  80.3582 279.7570 15.08853204138791,6917.84,95.437,540.683,538.727,0.0
49455.0,STARLINK-3145,PAYLOAD,2024-05-09 20:02:52,15.08834393,0.0001516,53.2194,341.7282,77.9457,282.1705,0.00011702,1.575e-05,0.0,0 STARLINK-3145,1 49455U 21104AZ  24130.83533104  .00001575  00000-0  11702-3 0  9994,2 49455  53.2194 341.7282 0001516  77.9457 282.1705 15.08834393138878,6917.898,95.438,540.811,538.714,0.0
49455.0,STARLINK-3145,PAYLOAD,2024-05-09 21:38:15,15.08841076,0.00012,53.2183,341.4263,80.1621,279.9506,0.00014021,1.944e-05,0.0,0 STARLINK-3145,1 49455U 21104AZ  24130.90156843  .00001944  00000-0  14021-3 0  9990,2 49455  53.2183 341.4263 0001200  80.1621 279.9506 15.08841076137813,6917.877,95.437,540.572,538.912,0.0
49455.0,STARLINK-3145,PAYLOAD,2024-05-09 23:13:38,15.08845419,0.0001256,53.2188,341.1282,92.8955,267.2181,0.00017848,2.554e-05,0.0,0 STARLINK-3145,1 49455U 21104AZ  24130.96780498  .00002554  00000-0  17848-3 0  9993,2 49455  53.2188 341.1282 0001256  92.8955 267.2181 15.08845419138890,6917.864,95.437,540.598,538.86,0.0
49455.0,STARLINK-3145,PAYLOAD,2024-05-10 13:32:06,15.08848964,0.0002341,53.2163,338.4573,77.5773,282.5481,0.00029313,4.381e-05,0.0,0 STARLINK-3145,1 49455U 21104AZ  24131.56396667  .00004381  00000-0  29313-3 0  9991,2 49455  53.2163 338.4573 0002341  77.5773 282.5481 15.08848964137912,6917.853,95.437,541.337,538.099,0.0
49455.0,STARLINK-3145,PAYLOAD,2024-05-10 19:53:39,15.08841853,9.66e-05,53.2145,337.2659,80.1568,279.9533,6.4251e-05,7.35e-06,0.0,0 STARLINK-3145,1 49455U 21104AZ  24131.82892586  .00000735  00000-0  64251-4 0  9991,2 49455  53.2145 337.2659 0000966  80.1568 279.9533 15.08841853139029,6917.875,95.437,540.408,539.071,0.0
49455.0,STARLINK-3145,PAYLOAD,2024-05-10 21:29:02,15.08847885,0.000112,53.2163,336.9688,90.9916,269.1205,0.00024974,3.69e-05,0.0,0 STARLINK-3145,1 49455U 21104AZ  24131.89516537  .00003690  00000-0  24974-3 0  9997,2 49455  53.2163 336.9688 0001120  90.9916 269.1205 15.08847885137965,6917.856,95.437,540.496,538.946,0.0
49455.0,STARLINK-3145,PAYLOAD,2024-05-11 13:22:51,15.08906778,0.0001121,53.218,333.991,85.3048,274.8072,0.0015413,0.00024372,0.0,0 STARLINK-3145,1 49455U 21104AZ  24132.55753999  .00024372  00000-0  15413-2 0  9993,2 49455  53.2180 333.9910 0001121  85.3048 274.8072 15.08906778139137,6917.676,95.433,540.317,538.766,0.0
49455.0,STARLINK-3145,PAYLOAD,2024-05-11 19:44:24,15.08822332,0.0001267,53.2173,332.8049,97.1359,262.9777,-0.0018041,-0.00028871,0.0,0 STARLINK-3145,1 49455U 21104AZ  24132.82251115 -.00028871  00000-0 -18041-2 0  9996,2 49455  53.2173 332.8049 0001267  97.1359 262.9777 15.08822332139174,6917.934,95.439,540.676,538.923,0.0
49455.0,STARLINK-3145,PAYLOAD,2024-05-12 06:52:09,15.08752377,0.0001514,53.2176,330.7238,90.9287,269.1879,-0.0027212,-0.00043233,0.0,0 STARLINK-3145,1 49455U 21104AZ  24133.28622045 -.00043233  00000-0 -27212-2 0  9990,2 49455  53.2176 330.7238 0001514  90.9287 269.1879 15.08752377139241,6918.148,95.443,541.061,538.966,0.0
49455.0,STARLINK-3145,PAYLOAD,2024-05-12 19:35:15,15.08808381,0.0001078,53.2169,328.3444,102.977,257.1342,0.0019701,0.00031178,0.0,0 STARLINK-3145,1 49455U 21104AZ  24133.81615552  .00031178  00000-0  19701-2 0  9991,2 49455  53.2169 328.3444 0001078 102.9770 257.1342 15.08808381139329,6917.977,95.44,540.588,539.096,0.0
49455.0,STARLINK-3145,PAYLOAD,2024-05-12 22:46:03,15.08816756,0.0001425,53.2175,327.749,98.3336,261.7818,0.0037633,0.00060077,0.0,0 STARLINK-3145,1 49455U 21104AZ  24133.94864624  .00060077  00000-0  37633-2 0  9995,2 49455  53.2175 327.7490 0001425  98.3336 261.7818 15.08816756138279,6917.951,95.439,540.802,538.831,0.0
49455.0,STARLINK-3145,PAYLOAD,2024-05-13 19:26:02,15.08874288,0.000119,53.2176,323.8831,88.9523,271.1606,0.0012048,0.00018956,0.0,0 STARLINK-3145,1 49455U 21104AZ  24134.80975186  .00018956  00000-0  12048-2 0  9999,2 49455  53.2176 323.8831 0001190  88.9523 271.1606 15.08874288139475,6917.776,95.435,540.464,538.817,0.0
49455.0,STARLINK-3145,PAYLOAD,2024-05-13 22:36:48,15.0887816,0.0001161,53.2177,323.2891,85.9569,274.1556,0.0011794,0.00018552,0.0,0 STARLINK-3145,1 49455U 21104AZ  24134.94222883  .00018552  00000-0  11794-2 0  9992,2 49455  53.2177 323.2891 0001161  85.9569 274.1556 15.08878160138425,6917.764,95.435,540.432,538.826,0.0
49455.0,STARLINK-3145,PAYLOAD,2024-05-14 12:55:16,15.08873479,0.000163,53.216,320.6134,92.1106,268.0073,0.00092578,0.0001449,0.0,0 STARLINK-3145,1 49455U 21104AZ  24135.53838001  .00014490  00000-0  92578-3 0  9990,2 49455  53.2160 320.6134 0001630  92.1106 268.0073 15.08873479139588,6917.778,95.435,540.771,538.515,0.0
49455.0,STARLINK-3145,PAYLOAD,2024-05-14 19:16:48,15.08874644,0.0001716,53.2173,319.4224,89.4205,270.6983,0.00088345,0.00013813,0.0,0 STARLINK-3145,1 49455U 21104AZ  24135.80333701  .00013813  00000-0  88345-3 0  9992,2 49455  53.2173 319.4224 0001716  89.4205 270.6983 15.08874644138552,6917.774,95.435,540.827,538.452,0.0
49455.0,STARLINK-3145,PAYLOAD,2024-05-15 12:46:02,15.08857686,7.2e-05,53.2186,316.1518,38.9242,321.1801,0.00047836,7.337e-05,0.0,0 STARLINK-3145,1 49455U 21104AZ  24136.53197150  .00007337  00000-0  47836-3 0  9993,2 49455  53.2186 316.1518 0000720  38.9242 321.1801 15.08857686139739,6917.826,95.436,540.189,539.193,0.0
49455.0,STARLINK-3145,PAYLOAD,2024-05-15 17:32:11,15.08852426,0.0001004,53.2149,315.2581,66.512,293.5977,5.9178e-05,6.54e-06,0.0,0 STARLINK-3145,1 49455U 21104AZ  24136.73069064  .00000654  00000-0  59178-4 0  9995,2 49455  53.2149 315.2581 0001004  66.5120 293.5977 15.08852426138693,6917.842,95.437,540.402,539.013,0.0
49455.0,STARLINK-3145,PAYLOAD,2024-05-16 04:39:52,15.0886321,0.0001258,53.2183,313.1784,79.6784,280.435,0.00017693,2.531e-05,0.0,0 STARLINK-3145,1 49455U 21104AZ  24137.19436274  .00002531  00000-0  17693-3 0  9998,2 49455  53.2183 313.1784 0001258  79.6784 280.4350 15.08863210138766,6917.809,95.436,540.545,538.804,0.0
49455.0,STARLINK-3145,PAYLOAD,2024-05-16 22:09:07,15.08850827,1.51e-05,53.2179,309.9076,80.7976,279.3034,2.195e-05,6.2e-07,0.0,0 STARLINK-3145,1 49455U 21104AZ  24137.92299868  .00000062  00000-0  21950-4 0  9994,2 49455  53.2179 309.9076 0000151  80.7976 279.3034 15.08850827138873,6917.847,95.437,539.817,539.608,0.0
